NORAD_CAT_ID,OBJECT_NAME,OBJECT_TYPE,EPOCH,MEAN_MOTION,ECCENTRICITY,INCLINATION,RA_OF_ASC_NODE,ARG_OF_PERICENTER,MEAN_ANOMALY,BSTAR,MEAN_MOTION_DOT,MEAN_MOTION_DDOT,TLE_LINE0,TLE_LINE1,TLE_LINE2,SEMIMAJOR_AXIS,PERIOD,APOGEE,PERIGEE,DECAYED
52585.0,STARLINK-3906,PAYLOAD,2023-10-17 10:09:08,15.0884129,0.000159,53.2162,83.8164,83.3278,276.7895,0.00019051,2.745e-05,0.0,0 STARLINK-3906,1 52585U 22051BB  23290.42301657  .00002745  00000-0  19051-3 0  9996,2 52585  53.2162  83.8164 0001590  83.3278 276.7895 15.08841290 79606,6917.876,95.437,540.841,538.642,0.0
52585.0,STARLINK-3906,PAYLOAD,2023-10-17 16:30:41,15.08840471,0.0001545,53.2163,82.6273,84.0037,276.1131,0.00034331,5.18e-05,0.0,0 STARLINK-3906,1 52585U 22051BB  23290.68797800  .00005180  00000-0  34331-3 0  9997,2 52585  53.2163  82.6273 0001545  84.0037 276.1131 15.08840471 79647,6917.879,95.438,540.813,538.675,0.0
52585.0,STARLINK-3906,PAYLOAD,2023-10-18 09:59:55,15.08842019,0.0001874,53.2157,79.3568,81.9082,278.2123,3.4865e-05,2.67e-06,0.0,0 STARLINK-3906,1 52585U 22051BB  23291.41661655  .00000267  00000-0  34865-4 0  9991,2 52585  53.2157  79.3568 0001874  81.9082 278.2123 15.08842019 79825,6917.874,95.437,541.036,538.443,0.0
52585.0,STARLINK-3906,PAYLOAD,2023-10-18 16:21:28,15.08845184,0.0001743,53.217,78.1666,88.477,271.6422,0.00016925,2.407e-05,0.0,0 STARLINK-3906,1 52585U 22051BB  23291.68157489  .00002407  00000-0  16925-3 0  9999,2 52585  53.2170  78.1666 0001743  88.4770 271.6422 15.08845184 79798,6917.865,95.437,540.935,538.524,0.0
52585.0,STARLINK-3906,PAYLOAD,2023-10-19 03:29:10,15.0883488,0.000176,53.2149,76.0838,101.4668,258.6522,0.00041959,6.395e-05,0.0,0 STARLINK-3906,1 52585U 22051BB  23292.14526110  .00006395  00000-0  41959-3 0  9997,2 52585  53.2149  76.0838 0001760 101.4668 258.6522 15.08834880 79868,6917.896,95.438,540.979,538.543,0.0
52585.0,STARLINK-3906,PAYLOAD,2023-10-19 19:23:00,15.0885266,0.0001647,53.2177,73.1103,87.2426,272.8755,0.00019314,2.788e-05,0.0,0 STARLINK-3906,1 52585U 22051BB  23292.80764895  .00002788  00000-0  19314-3 0  9996,2 52585  53.2177  73.1103 0001647  87.2426 272.8755 15.08852660 80032,6917.842,95.437,540.846,538.567,0.0
52585.0,STARLINK-3906,PAYLOAD,2023-10-20 09:41:29,15.08837846,0.000201,53.2146,70.4336,88.5792,271.543,5.0027e-05,5.08e-06,0.0,0 STARLINK-3906,1 52585U 22051BB  23293.40381684  .00000508  00000-0  50027-4 0  9999,2 52585  53.2146  70.4336 0002010  88.5792 271.5430 15.08837846 80126,6917.887,95.438,541.142,538.361,0.0
52585.0,STARLINK-3906,PAYLOAD,2023-10-21 12:43:04,15.08812082,0.0001589,53.2164,65.3768,94.7922,265.3252,0.00077954,0.00012131,0.0,0 STARLINK-3906,1 52585U 22051BB  23294.52991379  .00012131  00000-0  77954-3 0  9993,2 52585  53.2164  65.3768 0001589  94.7922 265.3252 15.08812082 80221,6917.966,95.439,540.93,538.731,0.0
52585.0,STARLINK-3906,PAYLOAD,2023-10-21 15:53:49,15.08844444,0.0001221,53.2172,64.7849,84.9003,275.2128,9.5292e-05,1.229e-05,0.0,0 STARLINK-3906,1 52585U 22051BB  23294.66237411  .00001229  00000-0  95292-4 0  9990,2 52585  53.2172  64.7849 0001221  84.9003 275.2128 15.08844444 80316,6917.867,95.437,540.576,538.887,0.0
52585.0,STARLINK-3906,PAYLOAD,2023-10-22 12:33:51,15.088249,0.0001131,53.2173,60.9195,79.7932,280.3188,-7.5387e-05,-1.487e-05,0.0,0 STARLINK-3906,1 52585U 22051BB  23295.52350749 -.00001487  00000-0 -75387-4 0  9997,2 52585  53.2173  60.9195 0001131  79.7932 280.3188 15.08824900 80444,6917.927,95.439,540.574,539.009,0.0
52585.0,STARLINK-3906,PAYLOAD,2023-10-22 14:09:14,15.08825952,0.0001139,53.217,60.6224,81.9989,278.1132,-0.00013174,-2.383e-05,0.0,0 STARLINK-3906,1 52585U 22051BB  23295.58974540 -.00002383  00000-0 -13174-3 0  9995,2 52585  53.2170  60.6224 0001139  81.9989 278.1132 15.08825952 80381,6917.923,95.438,540.576,539.0,0.0
52585.0,STARLINK-3906,PAYLOAD,2023-10-22 15:44:37,15.08828165,0.0001131,53.217,60.3251,77.032,283.0798,-7.493e-05,-1.48e-05,0.0,0 STARLINK-3906,1 52585U 22051BB  23295.65598530 -.00001480  00000-0 -74930-4 0  9999,2 52585  53.2170  60.3251 0001131  77.0320 283.0798 15.08828165 80398,6917.917,95.438,540.564,538.999,0.0
52585.0,STARLINK-3906,PAYLOAD,2023-10-23 01:16:55,15.0883429,0.0001186,53.2167,58.5415,77.7368,282.3757,9.8996e-05,1.288e-05,0.0,0 STARLINK-3906,1 52585U 22051BB  23296.05342539  .00001288  00000-0  98996-4 0  9992,2 52585  53.2167  58.5415 0001186  77.7368 282.3757 15.08834290 80522,6917.898,95.438,540.583,538.942,0.0
52585.0,STARLINK-3906,PAYLOAD,2023-10-23 12:24:37,15.08845969,0.000227,53.2183,56.4581,73.5478,286.5764,0.00029021,4.334e-05,0.0,0 STARLINK-3906,1 52585U 22051BB  23296.51710579  .00004334  00000-0  29021-3 0  9993,2 52585  53.2183  56.4581 0002270  73.5478 286.5764 15.08845969 80598,6917.862,95.437,541.297,538.157,0.0
52585.0,STARLINK-3906,PAYLOAD,2023-10-24 01:07:43,15.08838127,0.0001959,53.2171,54.0791,74.045,286.0758,0.00012473,1.697e-05,0.0,0 STARLINK-3906,1 52585U 22051BB  23297.04702931  .00001697  00000-0  12473-3 0  9997,2 52585  53.2171  54.0791 0001959  74.0450 286.0758 15.08838127 80676,6917.886,95.438,541.106,538.396,0.0
52585.0,STARLINK-3906,PAYLOAD,2023-10-24 13:50:48,15.0884073,0.0001244,53.2168,51.7017,76.096,284.0171,0.0002663,3.953e-05,0.0,0 STARLINK-3906,1 52585U 22051BB  23297.57694920  .00003953  00000-0  26630-3 0  9990,2 52585  53.2168  51.7017 0001244  76.0960 284.0171 15.08840730 80683,6917.878,95.438,540.604,538.883,0.0
52585.0,STARLINK-3906,PAYLOAD,2023-10-25 12:06:11,15.08848021,0.0001854,53.2172,47.5386,79.8661,280.254,0.00016689,2.37e-05,0.0,0 STARLINK-3906,1 52585U 22051BB  23298.50430509  .00002370  00000-0  16689-3 0  9990,2 52585  53.2172  47.5386 0001854  79.8661 280.2540 15.08848021 80898,6917.856,95.437,541.003,538.438,0.0
52585.0,STARLINK-3906,PAYLOAD,2023-10-26 11:56:59,15.08842076,0.0001486,53.2176,43.0783,87.5101,272.6062,0.00014458,2.014e-05,0.0,0 STARLINK-3906,1 52585U 22051BB  23299.49790669  .00002014  00000-0  14458-3 0  9992,2 52585  53.2176  43.0783 0001486  87.5101 272.6062 15.08842076 81046,6917.874,95.437,540.767,538.711,0.0
52585.0,STARLINK-3906,PAYLOAD,2023-10-26 13:32:22,15.08845193,0.0001556,53.2183,42.7806,92.747,267.3701,0.00019735,2.855e-05,0.0,0 STARLINK-3906,1 52585U 22051BB  23299.56414562  .00002855  00000-0  19735-3 0  9991,2 52585  53.2183  42.7806 0001556  92.7470 267.3701 15.08845193 80987,6917.865,95.437,540.806,538.653,0.0
52585.0,STARLINK-3906,PAYLOAD,2023-10-27 13:23:08,15.0886407,0.0001599,53.2182,38.3197,90.2315,269.886,0.00055708,8.595e-05,0.0,0 STARLINK-3906,1 52585U 22051BB  23300.55773816  .00008595  00000-0  55708-3 0  9990,2 52585  53.2182  38.3197 0001599  90.2315 269.8860 15.08864070 81202,6917.807,95.436,540.778,538.566,0.0
52585.0,STARLINK-3906,PAYLOAD,2023-10-28 13:13:56,15.08835303,0.0001445,53.2182,33.8595,74.3705,285.7446,-2.829e-05,-7.38e-06,0.0,0 STARLINK-3906,1 52585U 22051BB  23301.55134679 -.00000738  00000-0 -28290-4 0  9999,2 52585  53.2182  33.8595 0001445  74.3705 285.7446 15.08835303 81350,6917.895,95.438,540.759,538.76,0.0
52585.0,STARLINK-3906,PAYLOAD,2023-10-29 13:04:42,15.08875895,0.000153,53.2178,29.401,69.3985,290.7171,0.001525,0.0002409,0.0,0 STARLINK-3906,1 52585U 22051BB  23302.54493943  .00024090  00000-0  15250-2 0  9996,2 52585  53.2178  29.4010 0001530  69.3985 290.7171 15.08875895 81505,6917.771,95.435,540.694,538.577,0.0
52585.0,STARLINK-3906,PAYLOAD,2023-10-30 04:58:34,15.0884984,0.0002663,53.2178,26.4263,79.582,280.5473,0.00026461,3.927e-05,0.0,0 STARLINK-3906,1 52585U 22051BB  23303.20734334  .00003927  00000-0  26461-3 0  9995,2 52585  53.2178  26.4263 0002663  79.5820 280.5473 15.08849840 81605,6917.85,95.437,541.558,537.873,0.0
52585.0,STARLINK-3906,PAYLOAD,2023-10-30 11:20:07,15.08837251,0.0001586,53.2181,25.2375,80.879,279.2381,-4.6702e-05,-1.031e-05,0.0,0 STARLINK-3906,1 52585U 22051BB  23303.47230539 -.00001031  00000-0 -46702-4 0  9999,2 52585  53.2181  25.2375 0001586  80.8790 279.2381 15.08837251 81644,6917.889,95.438,540.851,538.657,0.0
52585.0,STARLINK-3906,PAYLOAD,2023-10-30 14:30:53,15.0882695,0.0001399,53.2172,24.6442,86.7949,273.3203,0.0014101,0.00022217,0.0,0 STARLINK-3906,1 52585U 22051BB  23303.60478821  .00022217  00000-0  14101-2 0  9995,2 52585  53.2172  24.6442 0001399  86.7949 273.3203 15.08826950 81591,6917.92,95.438,540.753,538.817,0.0
52585.0,STARLINK-3906,PAYLOAD,2023-10-31 12:46:18,15.08838586,0.0001707,53.218,20.4807,87.447,272.6718,0.00086603,0.00013521,0.0,0 STARLINK-3906,1 52585U 22051BB  23304.53215792  .00013521  00000-0  86603-3 0  9999,2 52585  53.2180  20.4807 0001707  87.4470 272.6718 15.08838586 81804,6917.885,95.438,540.931,538.569,0.0
52585.0,STARLINK-3906,PAYLOAD,2023-10-31 14:21:41,15.08841217,0.0001717,53.218,20.1828,85.0578,275.061,0.00092544,0.00014472,0.0,0 STARLINK-3906,1 52585U 22051BB  23304.59839796  .00014472  00000-0  92544-3 0  9998,2 52585  53.2180  20.1828 0001717  85.0578 275.0610 15.08841217 81744,6917.877,95.437,540.929,538.554,0.0
52585.0,STARLINK-3906,PAYLOAD,2023-11-01 04:40:08,15.0888178,0.0001426,53.217,17.5072,91.9763,268.1393,0.00166,0.0002626,0.0,0 STARLINK-3906,1 52585U 22051BB  23305.19454554  .00026260  00000-0  16600-2 0  9996,2 52585  53.2170  17.5072 0001426  91.9763 268.1393 15.08881780 81901,6917.753,95.435,540.604,538.631,0.0
52585.0,STARLINK-3906,PAYLOAD,2023-11-01 12:37:04,15.08854382,0.0001143,53.2181,16.0188,87.2224,272.8899,-0.00025383,-4.327e-05,0.0,0 STARLINK-3906,1 52585U 22051BB  23305.52574245 -.00004327  00000-0 -25383-3 0  9994,2 52585  53.2181  16.0188 0001143  87.2224 272.8899 15.08854382 81957,6917.836,95.437,540.492,538.911,0.0
52585.0,STARLINK-3906,PAYLOAD,2023-11-01 22:09:23,15.08841777,0.0001032,53.219,14.2336,97.4477,262.6632,0.0003708,5.619e-05,0.0,0 STARLINK-3906,1 52585U 22051BB  23305.92318357  .00005619  00000-0  37080-3 0  9998,2 52585  53.2190  14.2336 0001032  97.4477 262.6632 15.08841777 81947,6917.875,95.437,540.454,539.026,0.0
